STARLINK-37287          
1 68684U 26077Y   26112.46799477 -.00790104  00000+0 -53759-2 0  9992
2 68684  97.2828 343.5463 0001527  12.3182 347.8121 15.76933729  1807
