{
  "norad_id": 68684,
  "name": "STARLINK-37287",
  "history": [
    {
      "epoch": "2026-04-22T11:13:54.748128Z",
      "apogee_km": 340.16015073952167,
      "perigee_km": 338.1081587471708,
      "latitude_deg": -1.513486517980441e-05,
      "longitude_deg": -35.46096611631109,
      "height_km": 341.30175146676464,
      "semi_major_axis_km": 6717.2711547433455,
      "eccentricity": 0.00015274,
      "inclination_deg": 97.2828,
      "raan_deg": 343.5463,
      "arg_perigee_deg": 12.3182,
      "mean_anomaly_deg": 347.8121,
      "mean_motion_rev_day": 15.76933729
    }
  ]
}